{"type": "FeatureCollection", "features": [ {"type": "Feature", "properties": {"norad_id": 30146, "name": "FENGYUN 1C DEB", "group": "fengyun-1c-debris", "lat": 34.99141098807234, "lon": -27.368998396373648, "alt_km": 817.8790214762412, "timestamp": "2025-12-13T10:41:26.040286+00:00", "meta": {"OBJECT_NAME": "FENGYUN 1C DEB", "OBJECT_ID": "1999-025TB", "EPOCH": "2025-12-12T22:36:31.461120", "MEAN_MOTION": 13.86600447, "ECCENTRICITY": 0.01787898, "INCLINATION": 98.0199, "RA_OF_ASC_NODE": 146.5355, "ARG_OF_PERICENTER": 122.3183, "MEAN_ANOMALY": 29.8906, "EPHEMERIS_TYPE": 0, "CLASSIFICATION_TYPE": "U", "NORAD_CAT_ID": 30146, "ELEMENT_SET_NO": 999, "REV_AT_EPOCH": 95420, "BSTAR": 0.00091847164, "MEAN_MOTION_DOT": 1.178e-05, "MEAN_MOTION_DDOT": 0}, "tle": {"line1": "1 30146U 99025TB  25346.94203080  .00001178  00000+0  91847-3 0  9993", "line2": "2 30146  98.0199 146.5355 0178789 122.3183  29.8906 13.86600447954204"}}, "geometry": {"type": "Point", "coordinates": [-27.368998396373648, 34.99141098807234]}}, {"type": "Feature", "properties": {"norad_id": 30148, "name": "FENGYUN 1C DEB", "group": "fengyun-1c-debris", "lat": 6.510742349034416, "lon": -42.133045402397784, "alt_km": 843.8757079620555, "timestamp": "2025-12-13T10:41:26.040296+00:00", "meta": {"OBJECT_NAME": "FENGYUN 1C DEB", "OBJECT_ID": "1999-025TD", "EPOCH": "2025-12-12T22:22:19.856928", "MEAN_MOTION": 13.88489149, "ECCENTRICITY": 0.01349705, "INCLINATION": 99.5444, "RA_OF_ASC_NODE": 136.2417, "ARG_OF_PERICENTER": 196.1675, "MEAN_ANOMALY": 293.4517, "EPHEMERIS_TYPE": 0, "CLASSIFICATION_TYPE": "U", "NORAD_CAT_ID": 30148, "ELEMENT_SET_NO": 999, "REV_AT_EPOCH": 95519, "BSTAR": 0.0014239172, "MEAN_MOTION_DOT": 1.792e-05, "MEAN_MOTION_DDOT": 0}, "tle": {"line1": "1 30148U 99025TD  25346.93217427  .00001792  00000+0  14239-2 0  9995", "line2": "2 30148  99.5444 136.2417 0134970 196.1675 293.4517 13.88489149955191"}}, "geometry": {"type": "Point", "coordinates": [-42.133045402397784, 6.510742349034416]}}, {"type": "Feature", "properties": {"norad_id": 30150, "name": "FENGYUN 1C DEB", "group": "fengyun-1c-debris", "lat": -53.97772878597217, "lon": 135.9905381333004, "alt_km": 853.4858715804949, "timestamp": "2025-12-13T10:41:26.040306+00:00", "meta": {"OBJECT_NAME": "FENGYUN 1C DEB", "OBJECT_ID": "1999-025TF", "EPOCH": "2025-12-12T20:06:57.288384", "MEAN_MOTION": 13.86594029, "ECCENTRICITY": 0.0146515, "INCLINATION": 98.9943, "RA_OF_ASC_NODE": 122.826, "ARG_OF_PERICENTER": 335.8737, "MEAN_ANOMALY": 180.3076, "EPHEMERIS_TYPE": 0, "CLASSIFICATION_TYPE": "U", "NORAD_CAT_ID": 30150, "ELEMENT_SET_NO": 999, "REV_AT_EPOCH": 95459, "BSTAR": 0.00070658045, "MEAN_MOTION_DOT": 8.51e-06, "MEAN_MOTION_DDOT": 0}, "tle": {"line1": "1 30150U 99025TF  25346.83816306  .00000851  00000+0  70658-3 0  9991", "line2": "2 30150  98.9943 122.8260 0146515 335.8737 180.3076 13.86594029954596"}}, "geometry": {"type": "Point", "coordinates": [135.9905381333004, -53.97772878597217]}}, {"type": "Feature", "properties": {"norad_id": 30151, "name": "FENGYUN 1C DEB", "group": "fengyun-1c-debris", "lat": 74.69232406341558, "lon": -148.9304274896138, "alt_km": 1059.9060528696955, "timestamp": "2025-12-13T10:41:26.040317+00:00", "meta": {"OBJECT_NAME": "FENGYUN 1C DEB", "OBJECT_ID": "1999-025TG", "EPOCH": "2025-12-13T00:02:59.223840", "MEAN_MOTION": 13.8447346, "ECCENTRICITY": 0.01631754, "INCLINATION": 99.0633, "RA_OF_ASC_NODE": 354.9692, "ARG_OF_PERICENTER": 278.0702, "MEAN_ANOMALY": 135.8815, "EPHEMERIS_TYPE": 0, "CLASSIFICATION_TYPE": "U", "NORAD_CAT_ID": 30151, "ELEMENT_SET_NO": 999, "REV_AT_EPOCH": 95249, "BSTAR": 0.0008658852, "MEAN_MOTION_DOT": 1.032e-05, "MEAN_MOTION_DDOT": 0}, "tle": {"line1": "1 30151U 99025TG  25347.00207435  .00001032  00000+0  86589-3 0  9991", "line2": "2 30151  99.0633 354.9692 0163175 278.0702 135.8815 13.84473460952499"}}, "geometry": {"type": "Point", "coordinates": [-148.9304274896138, 74.69232406341558]}}, {"type": "Feature", "properties": {"norad_id": 30152, "name": "FENGYUN 1C DEB", "group": "fengyun-1c-debris", "lat": -73.58637520448977, "lon": -7.6941438824110655, "alt_km": 1029.4200069970275, "timestamp": "2025-12-13T10:41:26.040327+00:00", "meta": {"OBJECT_NAME": "FENGYUN 1C DEB", "OBJECT_ID": "1999-025TH", "EPOCH": "2025-12-12T02:31:48.295776", "MEAN_MOTION": 13.96678619, "ECCENTRICITY": 0.01617762, "INCLINATION": 99.0805, "RA_OF_ASC_NODE": 203.8642, "ARG_OF_PERICENTER": 87.1083, "MEAN_ANOMALY": 274.8581, "EPHEMERIS_TYPE": 0, "CLASSIFICATION_TYPE": "U", "NORAD_CAT_ID": 30152, "ELEMENT_SET_NO": 999, "REV_AT_EPOCH": 95369, "BSTAR": 0.0036265383, "MEAN_MOTION_DOT": 5.576e-05, "MEAN_MOTION_DDOT": 0}, "tle": {"line1": "1 30152U 99025TH  25346.10542009  .00005576  00000+0  36265-2 0  9993", "line2": "2 30152  99.0805 203.8642 0161776  87.1083 274.8581 13.96678619953697"}}, "geometry": {"type": "Point", "coordinates": [-7.6941438824110655, -73.58637520448977]}}, {"type": "Feature", "properties": {"norad_id": 30153, "name": "FENGYUN 1C DEB", "group": "fengyun-1c-debris", "lat": -25.24026858579109, "lon": 152.90254929865128, "alt_km": 1110.248573736848, "timestamp": "2025-12-13T10:41:26.040337+00:00", "meta": {"OBJECT_NAME": "FENGYUN 1C DEB", "OBJECT_ID": "1999-025TJ", "EPOCH": "2025-12-12T21:47:45.220128", "MEAN_MOTION": 13.78771035, "ECCENTRICITY": 0.0200734, "INCLINATION": 100.4668, "RA_OF_ASC_NODE": 337.3092, "ARG_OF_PERICENTER": 5.1903, "MEAN_ANOMALY": 55.8083, "EPHEMERIS_TYPE": 0, "CLASSIFICATION_TYPE": "U", "NORAD_CAT_ID": 30153, "ELEMENT_SET_NO": 999, "REV_AT_EPOCH": 94777, "BSTAR": 0.0018599511, "MEAN_MOTION_DOT": 2.146e-05, "MEAN_MOTION_DDOT": 0}, "tle": {"line1": "1 30153U 99025TJ  25346.90816227  .00002146  00000+0  18600-2 0  9991", "line2": "2 30153 100.4668 337.3092 0200734   5.1903  55.8083 13.78771035947775"}}, "geometry": {"type": "Point", "coordinates": [152.90254929865128, -25.24026858579109]}}, {"type": "Feature", "properties": {"norad_id": 30154, "name": "FENGYUN 1C DEB", "group": "fengyun-1c-debris", "lat": 66.27820662637616, "lon": -131.0636763539077, "alt_km": 921.0977321029914, "timestamp": "2025-12-13T10:41:26.040348+00:00", "meta": {"OBJECT_NAME": "FENGYUN 1C DEB", "OBJECT_ID": "1999-025TK", "EPOCH": "2025-12-12T01:21:57.557088", "MEAN_MOTION": 13.85984686, "ECCENTRICITY": 0.01829299, "INCLINATION": 98.4501, "RA_OF_ASC_NODE": 27.9097, "ARG_OF_PERICENTER": 200.5752, "MEAN_ANOMALY": 189.4002, "EPHEMERIS_TYPE": 0, "CLASSIFICATION_TYPE": "U", "NORAD_CAT_ID": 30154, "ELEMENT_SET_NO": 999, "REV_AT_EPOCH": 94975, "BSTAR": 0.0023331747, "MEAN_MOTION_DOT": 3.022e-05, "MEAN_MOTION_DDOT": 0}, "tle": {"line1": "1 30154U 99025TK  25346.05691617  .00003022  00000+0  23332-2 0  9994", "line2": "2 30154  98.4501  27.9097 0182929 200.5752 189.4002 13.85984686949754"}}, "geometry": {"type": "Point", "coordinates": [-131.0636763539077, 66.27820662637616]}}, {"type": "Feature", "properties": {"norad_id": 30155, "name": "FENGYUN 1C DEB", "group": "fengyun-1c-debris", "lat": -58.23295793483505, "lon": 77.10769021937371, "alt_km": 857.7754577480282, "timestamp": "2025-12-13T10:41:26.040358+00:00", "meta": {"OBJECT_NAME": "FENGYUN 1C DEB", "OBJECT_ID": "1999-025TL", "EPOCH": "2025-12-12T20:59:04.511328", "MEAN_MOTION": 13.73801681, "ECCENTRICITY": 0.02418497, "INCLINATION": 99.7515, "RA_OF_ASC_NODE": 60.4018, "ARG_OF_PERICENTER": 343.4592, "MEAN_ANOMALY": 15.8764, "EPHEMERIS_TYPE": 0, "CLASSIFICATION_TYPE": "U", "NORAD_CAT_ID": 30155, "ELEMENT_SET_NO": 999, "REV_AT_EPOCH": 93866, "BSTAR": 0.0024777137, "MEAN_MOTION_DOT": 2.816e-05, "MEAN_MOTION_DDOT": 0}, "tle": {"line1": "1 30155U 99025TL  25346.87435777  .00002816  00000+0  24777-2 0  9992", "line2": "2 30155  99.7515  60.4018 0241849 343.4592  15.8764 13.73801681938660"}}, "geometry": {"type": "Point", "coordinates": [77.10769021937371, -58.23295793483505]}}, {"type": "Feature", "properties": {"norad_id": 30156, "name": "FENGYUN 1C DEB", "group": "fengyun-1c-debris", "lat": -31.797346410880994, "lon": 128.81918236102092, "alt_km": 869.0974989270053, "timestamp": "2025-12-13T10:41:26.040368+00:00", "meta": {"OBJECT_NAME": "FENGYUN 1C DEB", "OBJECT_ID": "1999-025TM", "EPOCH": "2025-12-12T21:45:05.908896", "MEAN_MOTION": 13.80814171, "ECCENTRICITY": 0.01993311, "INCLINATION": 98.9186, "RA_OF_ASC_NODE": 313.8965, "ARG_OF_PERICENTER": 262.4542, "MEAN_ANOMALY": 152.886, "EPHEMERIS_TYPE": 0, "CLASSIFICATION_TYPE": "U", "NORAD_CAT_ID": 30156, "ELEMENT_SET_NO": 999, "REV_AT_EPOCH": 94693, "BSTAR": 0.0022008619, "MEAN_MOTION_DOT": 2.651e-05, "MEAN_MOTION_DDOT": 0}, "tle": {"line1": "1 30156U 99025TM  25346.90631839  .00002651  00000+0  22009-2 0  9997", "line2": "2 30156  98.9186 313.8965 0199331 262.4542 152.8860 13.80814171946939"}}, "geometry": {"type": "Point", "coordinates": [128.81918236102092, -31.797346410880994]}}, {"type": "Feature", "properties": {"norad_id": 30157, "name": "FENGYUN 1C DEB", "group": "fengyun-1c-debris", "lat": -64.01208295240113, "lon": 102.83527495809098, "alt_km": 754.8714405018391, "timestamp": "2025-12-13T10:41:26.040379+00:00", "meta": {"OBJECT_NAME": "FENGYUN 1C DEB", "OBJECT_ID": "1999-025TN", "EPOCH": "2025-12-11T18:10:10.308864", "MEAN_MOTION": 14.45076498, "ECCENTRICITY": 0.00370671, "INCLINATION": 98.7143, "RA_OF_ASC_NODE": 82.7647, "ARG_OF_PERICENTER": 196.2257, "MEAN_ANOMALY": 319.5325, "EPHEMERIS_TYPE": 0, "CLASSIFICATION_TYPE": "U", "NORAD_CAT_ID": 30157, "ELEMENT_SET_NO": 999, "REV_AT_EPOCH": 98058, "BSTAR": 0.003491486, "MEAN_MOTION_DOT": 0.00012279, "MEAN_MOTION_DDOT": 0}, "tle": {"line1": "1 30157U 99025TN  25345.75706376  .00012279  00000+0  34915-2 0  9995", "line2": "2 30157  98.7143  82.7647 0037067 196.2257 319.5325 14.45076498980585"}}, "geometry": {"type": "Point", "coordinates": [102.83527495809098, -64.01208295240113]}}]}